     2.100          NAVIGATION                              RINEX VERSION / TYPE
fic2rin                                 11/20/2013 00:31:36 PGM / RUN BY / DATE
                                                            END OF HEADER
31 13 11 19 16  0  0.0  .329926609993D-03  .568434188608D-12  .000000000000D+00
     .109000000000D+03  .307812500000D+02  .424339103998D-08  .211274882678D+01
     .170618295670D-05  .812343461439D-02  .823289155960D-06  .515371534729D+04
     .230400000000D+06  .372529029846D-07 -.143017370532D+01  .428408384323D-07
     .979313562169D+00  .371531250000D+03 -.721129063474D+00 -.818034074403D-08
     .482162941165D-10  .100000000000D+01  .176700000000D+04  .000000000000D+00
     .340000000000D+01  .000000000000D+00 -.130385160446D-07  .109000000000D+03
     .223206000000D+06  .400000000000D+01
32 13 11 19 16  0  0.0 -.527499243617D-03  .477484718431D-11  .000000000000D+00
     .520000000000D+02 -.540625000000D+01  .463697886307D-08  .258947779714D+01
    -.262632966042D-06  .115896256175D-01  .991858541965D-05  .515355463028D+04
     .230400000000D+06 -.145286321640D-06  .281693395759D+01  .150874257088D-06
     .948757486918D+00  .181500000000D+03 -.238465170517D+00 -.786175604512D-08
    -.692886004340D-09  .100000000000D+01  .176700000000D+04  .000000000000D+00
     .240000000000D+01  .000000000000D+00 -.325962901115D-08  .520000000000D+02
     .223206000000D+06  .400000000000D+01
31 13 11 19 15 59 44.0  .329927075654D-03  .568434188608D-12  .000000000000D+00
     .900000000000D+01  .307812500000D+02  .424303388225D-08  .211041546074D+01
     .170618295670D-05  .812343379948D-02  .823289155960D-06  .515371534538D+04
     .230384000000D+06  .372529029846D-07 -.143017356196D+01  .428408384323D-07
     .979313569484D+00  .371531250000D+03 -.721129405797D+00 -.818034074403D-08
     .482162941165D-10  .100000000000D+01  .176700000000D+04  .000000000000D+00
     .240000000000D+01  .000000000000D+00 -.130385160446D-07  .900000000000D+01
     .228456000000D+06  .400000000000D+01
31 13 11 19 17 59 44.0  .329931732267D-03  .568434188608D-12  .000000000000D+00
     .100000000000D+02  .304687500000D+02  .430053627746D-08 -.312254919795D+01
     .163540244102D-05  .812383927405D-02  .707805156708D-06  .515371419907D+04
     .237584000000D+06  .186264514923D-08 -.143023255413D+01  .540167093277D-07
     .979314024451D+00  .377625000000D+03 -.721195535546D+00 -.816784022333D-08
     .717887045734D-10  .100000000000D+01  .176700000000D+04  .000000000000D+00
     .240000000000D+01  .000000000000D+00 -.130385160446D-07  .100000000000D+02
     .230406000000D+06  .400000000000D+01
 1 13 11 19 18  0  0.0  .955653376877D-04  .318323145621D-11  .000000000000D+00
     .760000000000D+02  .937500000000D+01  .500627996023D-08 -.263946686069D+01
     .411644577980D-06  .253375142347D-02  .553391873837D-05  .515367668533D+04
     .237600000000D+06 -.260770320892D-07  .168702391301D+01 -.912696123123D-07
     .959982234976D+00  .273281250000D+03  .432151280287D+00 -.814391065514D-08
     .190365072327D-09  .100000000000D+01  .176700000000D+04  .000000000000D+00
     .240000000000D+01  .000000000000D+00  .791624188423D-08  .760000000000D+02
     .230406000000D+06  .400000000000D+01
 2 13 11 19 18  0  0.0  .462259165943D-03  .216004991671D-11  .000000000000D+00
     .360000000000D+02  .107500000000D+02  .548594279725D-08 -.180521851400D+01
     .571832060814D-06  .127492862521D-01  .489130616188D-05  .515375392723D+04
     .237600000000D+06  .149011611938D-06  .166152958259D+01 -.894069671631D-07
     .938499435126D+00  .271343750000D+03 -.253922178469D+01 -.834034740895D-08
     .334299639208D-09  .100000000000D+01  .176700000000D+04  .000000000000D+00
     .240000000000D+01  .000000000000D+00 -.204890966415D-07  .360000000000D+02
     .230406000000D+06  .400000000000D+01
 3 13 11 19 18  0  0.0  .288387294859D-03  .511590769747D-11  .000000000000D+00
     .600000000000D+02 -.422500000000D+02  .477805616808D-08 -.163849239132D+01
    -.194273889065D-05  .167040947126D-01  .109672546387D-04  .515374783516D+04
     .237600000000D+06  .303611159325D-06  .489194507018D+00  .294297933578D-06
     .936497384921D+00  .149218750000D+03  .135083949111D+01 -.791711549392D-08
     .447518640948D-09  .100000000000D+01  .176700000000D+04  .000000000000D+00
     .240000000000D+01  .000000000000D+00 -.465661287308D-08  .600000000000D+02
     .230406000000D+06  .400000000000D+01
 4 13 11 19 18  0  0.0  .336067751050D-05  .341060513165D-12  .000000000000D+00
     .660000000000D+02  .878125000000D+01  .560023327219D-08  .150182851540D+01
     .394880771637D-06  .106795575703D-01  .550597906113D-05  .515363294411D+04
     .237600000000D+06 -.294297933578D-06  .167777080694D+01 -.447034835815D-07
     .937528475916D+00  .265843750000D+03  .105478460472D+01 -.855107047212D-08
     .162506769059D-09  .100000000000D+01  .176700000000D+04  .000000000000D+00
     .240000000000D+01  .000000000000D+00 -.651925802231D-08  .660000000000D+02
     .230406000000D+06  .400000000000D+01
 5 13 11 19 18  0  0.0 -.397242140025D-03  .795807864051D-12  .000000000000D+00
     .890000000000D+02 -.117187500000D+02  .488877506568D-08  .429567916177D+00
    -.521540641785D-06  .344977842178D-02  .857375562191D-05  .515374383163D+04
     .237600000000D+06 -.372529029846D-08  .272806546884D+01  .204890966415D-07
     .948170859694D+00  .203656250000D+03  .334731638916D+00 -.812569561070D-08
    -.621811615235D-09  .100000000000D+01  .176700000000D+04  .000000000000D+00
     .240000000000D+01  .000000000000D+00 -.102445483208D-07  .890000000000D+02
     .230406000000D+06  .400000000000D+01
 6 13 11 19 18  0  0.0  .156947877258D-03  .170530256582D-10  .000000000000D+00
     .101000000000D+03 -.385312500000D+02  .479769984346D-08  .195912088845D+00
    -.201910734177D-05  .824053667020D-02  .109262764454D-04  .515368570518D+04
     .237600000000D+06  .115483999252D-06  .569948415931D+00 -.372529029846D-07
     .942969496887D+00  .160125000000D+03 -.202482046624D+00 -.812855287257D-08
     .483948729836D-09  .100000000000D+01  .176700000000D+04  .000000000000D+00
     .240000000000D+01  .000000000000D+00 -.512227416039D-08  .101000000000D+03
     .230406000000D+06  .400000000000D+01
 7 13 11 19 18  0  0.0  .282495282590D-03  .420641299570D-11  .000000000000D+00
     .840000000000D+02  .318437500000D+02  .436732477375D-08  .309715054091D+01
     .161677598953D-05  .700819690246D-02  .132247805595D-05  .515366011429D+04
     .237600000000D+06 -.987201929092D-07 -.143553975759D+01 -.223517417908D-07
     .974348754679D+00  .362156250000D+03 -.283967806639D+01 -.818141221723D-08
     .103932900651D-09  .100000000000D+01  .176700000000D+04  .000000000000D+00
     .240000000000D+01  .000000000000D+00 -.107102096081D-07  .840000000000D+02
     .230406000000D+06  .400000000000D+01
 8 13 11 19 18  0  0.0  .100024044514D-04  .341060513165D-12  .000000000000D+00
     .147000000000D+03  .137812500000D+02  .386944689228D-08  .252663674518D+01
     .577419996262D-06  .134820452658D-01  .162050127983D-05  .515366820717D+04
     .237600000000D+06 -.230967998505D-06 -.134029418511D+01 -.502914190292D-07
     .997344296673D+00  .369687500000D+03 -.280559498489D+01 -.789532887214D-08
     .239295681911D-10  .100000000000D+01  .176700000000D+04  .000000000000D+00
     .240000000000D+01  .000000000000D+00 -.465661287308D-08  .147000000000D+03
     .230406000000D+06  .400000000000D+01
 9 13 11 19 18  0  0.0  .284267123789D-03  .284217094304D-11  .000000000000D+00
     .840000000000D+02  .369687500000D+02  .412731477637D-08 -.201083665322D+01
     .225566327572D-05  .168270454742D-01  .118464231491D-05  .515370719910D+04
     .237600000000D+06  .178813934326D-06 -.145743752732D+01  .324100255966D-06
     .982924080562D+00  .367250000000D+03  .174471827580D+01 -.798533262116D-08
     .960754304987D-10  .100000000000D+01  .176700000000D+04  .000000000000D+00
     .485000000000D+01  .000000000000D+00 -.605359673500D-08  .840000000000D+02
     .230406000000D+06  .400000000000D+01
10 13 11 19 18  0  0.0 -.102463643998D-03 -.159161572810D-11  .000000000000D+00
     .900000000000D+02 -.102187500000D+02  .508914055456D-08  .730849880545D+00
    -.232830643654D-06  .131622831104D-01  .884570181370D-05  .515367526817D+04
     .237600000000D+06 -.145286321640D-06  .274644720860D+01  .111758708954D-06
     .942996660350D+00  .200656250000D+03  .833975314968D+00 -.834213319762D-08
    -.711815364253D-09  .100000000000D+01  .176700000000D+04  .000000000000D+00
     .240000000000D+01  .000000000000D+00 -.279396772385D-08  .900000000000D+02
     .230406000000D+06  .400000000000D+01
11 13 11 19 18  0  0.0 -.439389143139D-03 -.341060513165D-11  .000000000000D+00
     .210000000000D+02  .256250000000D+02  .647955561379D-08 -.294392200701D+01
     .117160379887D-05  .147671591258D-01  .568851828575D-05  .515368657303D+04
     .237600000000D+06  .283122062683D-06  .137686603991D+01 -.154599547386D-06
     .889172442950D+00  .228156250000D+03  .124163248241D+01 -.871179145251D-08
     .487163149443D-09  .100000000000D+01  .176700000000D+04  .000000000000D+00
     .240000000000D+01  .000000000000D+00 -.116415321827D-07  .210000000000D+02
     .230406000000D+06  .400000000000D+01
12 13 11 19 18  0  0.0  .169053673744D-03  .227373675443D-11  .000000000000D+00
     .760000000000D+02 -.117656250000D+03  .374229873891D-08  .279269303051D+01
    -.605918467045D-05  .457014911808D-02  .711716711521D-05  .515372750092D+04
     .237600000000D+06 -.670552253723D-07 -.374690285114D+00 -.279396772385D-07
     .986166029911D+00  .254406250000D+03  .328884510423D+00 -.769532054099D-08
    -.138577200868D-09  .100000000000D+01  .176700000000D+04  .000000000000D+00
     .240000000000D+01  .000000000000D+00 -.121071934700D-07  .760000000000D+02
     .230406000000D+06  .400000000000D+01
